{"fetched_at":"2026-07-14T06:35:12.205Z","source":"https://celestrak.org/NORAD/elements/gp.php?NAME=UMBRA&FORMAT=JSON","constellation":"umbra","records":[{"OBJECT_NAME":"UMBRA-07","OBJECT_ID":"2023-174AT","EPOCH":"2026-07-13T16:33:13.650912","CLASSIFICATION_TYPE":"U","MEAN_MOTION":15.09604646,"ECCENTRICITY":0.0002403,"INCLINATION":97.3789,"RA_OF_ASC_NODE":249.4542,"ARG_OF_PERICENTER":22.1871,"MEAN_ANOMALY":337.9462,"EPHEMERIS_TYPE":0,"NORAD_CAT_ID":58297,"ELEMENT_SET_NO":999,"REV_AT_EPOCH":14741,"BSTAR":0.00034934,"MEAN_MOTION_DOT":0.00005555,"MEAN_MOTION_DDOT":0},{"OBJECT_NAME":"UMBRA-09","OBJECT_ID":"2024-149CB","EPOCH":"2026-07-13T19:44:10.106880","CLASSIFICATION_TYPE":"U","MEAN_MOTION":15.18823322,"ECCENTRICITY":0.0001885,"INCLINATION":97.6978,"RA_OF_ASC_NODE":282.4978,"ARG_OF_PERICENTER":204.2965,"MEAN_ANOMALY":155.818,"EPHEMERIS_TYPE":0,"NORAD_CAT_ID":60541,"ELEMENT_SET_NO":999,"REV_AT_EPOCH":10476,"BSTAR":0.0004388,"MEAN_MOTION_DOT":0.00009069,"MEAN_MOTION_DDOT":0},{"OBJECT_NAME":"UMBRA-10","OBJECT_ID":"2024-149CH","EPOCH":"2026-07-13T18:08:38.584032","CLASSIFICATION_TYPE":"U","MEAN_MOTION":15.18823782,"ECCENTRICITY":0.0001572,"INCLINATION":97.6985,"RA_OF_ASC_NODE":282.4601,"ARG_OF_PERICENTER":166.4976,"MEAN_ANOMALY":193.63,"EPHEMERIS_TYPE":0,"NORAD_CAT_ID":60547,"ELEMENT_SET_NO":999,"REV_AT_EPOCH":10476,"BSTAR":0.00040075,"MEAN_MOTION_DOT":0.00008275,"MEAN_MOTION_DDOT":0},{"OBJECT_NAME":"UMBRA-11","OBJECT_ID":"2025-276CL","EPOCH":"2026-07-13T17:26:14.961984","CLASSIFICATION_TYPE":"U","MEAN_MOTION":15.27743252,"ECCENTRICITY":0.000258,"INCLINATION":97.4195,"RA_OF_ASC_NODE":269.2093,"ARG_OF_PERICENTER":188.7951,"MEAN_ANOMALY":171.3244,"EPHEMERIS_TYPE":0,"NORAD_CAT_ID":66748,"ELEMENT_SET_NO":999,"REV_AT_EPOCH":3454,"BSTAR":0.00044412,"MEAN_MOTION_DOT":0.00011971,"MEAN_MOTION_DDOT":0},{"OBJECT_NAME":"UMBRA-12","OBJECT_ID":"2026-004J","EPOCH":"2026-07-13T12:13:37.425216","CLASSIFICATION_TYPE":"U","MEAN_MOTION":14.89524904,"ECCENTRICITY":0.00075,"INCLINATION":97.8021,"RA_OF_ASC_NODE":192.9182,"ARG_OF_PERICENTER":57.3356,"MEAN_ANOMALY":302.8584,"EPHEMERIS_TYPE":0,"NORAD_CAT_ID":67371,"ELEMENT_SET_NO":999,"REV_AT_EPOCH":2722,"BSTAR":0.00021601,"MEAN_MOTION_DOT":0.00002004,"MEAN_MOTION_DDOT":0}]}
