UMBRA-07                
1 58297U 23174AT  26194.68974133  .00005555  00000+0  34934-3 0  9996
2 58297  97.3789 249.4542 0002403  22.1871 337.9462 15.09604646147418
UMBRA-09                
1 60541U 24149CB  26194.82233920  .00009069  00000+0  43880-3 0  9996
2 60541  97.6978 282.4978 0001885 204.2965 155.8180 15.18823322104765
UMBRA-10                
1 60547U 24149CH  26194.75600213  .00008275  00000+0  40075-3 0  9998
2 60547  97.6985 282.4601 0001572 166.4976 193.6300 15.18823782104760
UMBRA-11                
1 66748U 25276CL  26194.72656206  .00011971  00000+0  44412-3 0  9995
2 66748  97.4195 269.2093 0002580 188.7951 171.3244 15.27743252 34549
UMBRA-12                
1 67371U 26004J   26194.50946094  .00002004  00000+0  21601-3 0  9993
2 67371  97.8021 192.9182 0007500  57.3356 302.8584 14.89524904 27225
